GPS BIIA-23 (PRN 18)    
1 22877U 93068A   19179.49299559 -.00000062  00000-0  00000+0 0  9999
2 22877  54.6929  68.0940 0152932  80.2159 232.9982  2.00561682188098
GPS BIIR-2  (PRN 13)    
1 24876U 97035A   19178.95405657  .00000109  00000-0  00000+0 0  9997
2 24876  55.4608 198.0458 0033076  71.1831 289.2357  2.00564505160686
GPS BIIR-3  (PRN 11)    
1 25933U 99055A   19179.31160572 -.00000070  00000-0  00000+0 0  9999
2 25933  52.1305  45.3493 0165027 109.2526  75.2441  2.00558836144519
GPS BIIR-4  (PRN 20)    
1 26360U 00025A   19179.28335927  .00000008  00000-0  00000+0 0  9997
2 26360  53.3433 123.9764 0043539 138.5972  72.4481  2.00560622140207
GPS BIIR-5  (PRN 28)    
1 26407U 00040A   19179.47241744 -.00000059  00000-0  00000+0 0  9997
2 26407  56.2517 316.1480 0192305 275.9577  44.6493  2.00560467138880
GPS BIIR-6  (PRN 14)    
1 26605U 00071A   19179.26846946  .00000110  00000-0  00000+0 0  9990
2 26605  55.0354 195.4766 0109616 249.5906 195.7392  2.00558535136479
GPS BIIR-8  (PRN 16)    
1 27663U 03005A   19179.11221053 -.00000059  00000-0  00000+0 0  9998
2 27663  56.3117 315.9360 0106478  32.3677 150.5482  2.00573155120231
GPS BIIR-9  (PRN 21)    
1 27704U 03010A   19179.28523372 -.00000064  00000-0  00000+0 0  9993
2 27704  54.3682  67.5684 0247717 277.9008 352.1296  2.00559008119049
GPS BIIR-10 (PRN 22)    
1 28129U 03058A   19179.14861581  .00000015  00000-0  00000+0 0  9994
2 28129  53.1554 126.7648 0073898 283.7471  75.4050  2.00551633113739
GPS BIIR-11 (PRN 19)    
1 28190U 04009A   19178.61540662 -.00000060  00000-0  00000+0 0  9995
2 28190  56.2697  16.7295 0093871  82.1482 254.8479  2.00568186111907
GPS BIIR-12 (PRN 23)    
1 28361U 04023A   19179.25952373  .00000109  00000-0  00000+0 0  9991
2 28361  54.0514 189.8330 0134970 231.9664 125.1165  2.00576203109992
GPS BIIR-13 (PRN 02)    
1 28474U 04045A   19179.15235000 -.00000064  00000-0  00000+0 0  9991
2 28474  54.7250  67.3294 0191282 260.9039  17.4420  2.00556426107368
GPS BIIRM-1 (PRN 17)    
1 28874U 05038A   19179.56963503 -.00000055  00000-0  00000+0 0  9999
2 28874  56.3922  14.0458 0130616 262.0587  62.2884  2.00553980100774
GPS BIIRM-2 (PRN 31)    
1 29486U 06042A   19178.28348815  .00000009  00000-0  00000+0 0  9994
2 29486  54.9930 252.6370 0092013 358.9931  41.6227  2.00567784 93462
GPS BIIRM-3 (PRN 12)    
1 29601U 06052A   19178.67331616 -.00000060  00000-0  00000-0 0  9997
2 29601  56.2926 314.8699 0073884  62.0774 298.6674  2.00570035 92337
GPS BIIRM-4 (PRN 15)    
1 32260U 07047A   19178.98558260  .00000105  00000-0  00000+0 0  9995
2 32260  53.1748 185.5235 0112435  43.9688 316.9595  2.00558710 85768
GPS BIIRM-5 (PRN 29)    
1 32384U 07062A   19178.74680674 -.00000058  00000-0  00000+0 0  9996
2 32384  56.4768  14.7191 0009471 105.3073 217.2681  2.00557121 84496
GPS BIIRM-6 (PRN 07)    
1 32711U 08012A   19179.39146014  .00000023  00000-0  00000+0 0  9994
2 32711  54.7327 251.7798 0130788 220.1870 138.9110  2.00555237 82697
GPS BIIRM-8 (PRN 05)    
1 35752U 09043A   19178.60857035  .00000025  00000-0  00000+0 0  9994
2 35752  54.4355 129.4761 0055759  39.7108 140.5387  2.00558505 72264
GPS BIIF-1  (PRN 25)    
1 36585U 10022A   19179.21110834 -.00000059  00000-0  00000+0 0  9993
2 36585  55.5710 311.1410 0082369  50.8136 306.8834  2.00561303 66525
GPS BIIF-2  (PRN 01)    
1 37753U 11036A   19179.33213726 -.00000060  00000-0  00000+0 0  9996
2 37753  55.9225  71.2979 0088291  40.4456 132.6735  2.00566513 58201
GPS BIIF-3  (PRN 24)    
1 38833U 12053A   19177.58495402  .00000009  00000-0  00000+0 0  9996
2 38833  53.7691 248.0447 0082189  33.2941 327.2899  2.00558799 49230
GPS BIIF-4  (PRN 27)    
1 39166U 13023A   19178.93906424 -.00000058  00000-0  00000+0 0  9990
2 39166  56.0733  10.8414 0070451  27.4509 332.9632  2.00567411 44803
GPS BIIF-5  (PRN 30)    
1 39533U 14008A   19179.43235332  .00000019  00000-0  00000+0 0  9997
2 39533  53.8985 253.3652 0041657 194.0572 165.8964  2.00549852 39174
GPS BIIF-6  (PRN 06)    
1 39741U 14026A   19179.21776624 -.00000061  00000-0  00000+0 0  9996
2 39741  55.9020  70.8281 0016738 294.9566  64.9095  2.00571627 37451
GPS BIIF-7  (PRN 09)    
1 40105U 14045A   19179.31042836  .00000110  00000-0  00000+0 0  9999
2 40105  54.5779 190.1419 0009749 102.0559 258.1010  2.00566154 35908
GPS BIIF-8  (PRN 03)    
1 40294U 14068A   19179.17842522  .00000026  00000-0  00000+0 0  9993
2 40294  55.1875 131.0161 0021617  30.5314 329.5670  2.00553148 34128
GPS BIIF-9  (PRN 26)    
1 40534U 15013A   19178.32070340 -.00000061  00000-0  00000+0 0  9998
2 40534  54.4987 309.5076 0036988   6.0533 353.9924  2.00569060 31171
GPS BIIF-10  (PRN 08)   
1 40730U 15033A   19179.48030498 -.00000058  00000-0  00000+0 0  9992
2 40730  55.5976  10.1550 0044524 345.1863  14.7256  2.00553966 28959
GPS BIIF-11  (PRN 10)   
1 41019U 15062A   19179.02793316  .00000027  00000-0  00000+0 0  9995
2 41019  55.1884 130.8378 0047243 207.9501 151.7702  2.00564657 26761
GPS BIIF-12  (PRN 32)   
1 41328U 16007A   19177.12769890  .00000096  00000-0  00000+0 0  9993
2 41328  54.8210 190.6209 0033061 220.8351 138.9604  2.00572039 24781
